[
    {
        "Altitude(m)": 611967.1459907889,
        "Argument of Periapsis(deg)": 0.0,
        "Eccentricity": 0.0,
        "Inclination(deg)": 60.0,
        "Latitude(deg)": 59.1400617225694,
        "Longitude(deg)": -108.90785579798262,
        "Mean Anomaly(deg)": 98.18179999999998,
        "RAAN(deg)": 245.0,
        "Satellite Name": "Test1 1084",
        "Satellite Number": 1084,
        "Semi-Major Axis(m)": 6980739.136638005,
        "Time(s)": 0
    },
    {
        "Altitude(m)": 611934.3454293335,
        "Argument of Periapsis(deg)": 0.00010418945913296404,
        "Eccentricity": 0.0,
        "Inclination(deg)": 60.0,
        "Latitude(deg)": 58.986422906695296,
        "Longitude(deg)": -107.78461385281915,
        "Mean Anomaly(deg)": 98.80190614546184,
        "RAAN(deg)": 244.99957995086027,
        "Satellite Name": "Test1 1084",
        "Satellite Number": 1084,
        "Semi-Major Axis(m)": 6980739.136638005,
        "Time(s)": 10
    }
]